ACCNTNUM,LOCNUM,LATITUDE,LONGITUDE,POSTCODE,ADDRMATCH,STATE,STATECODE,COUNTY,COUNTYCODE,CITY,CITYCODE,COUNTRY,CNTRYSCHEME,CNTRYCODE,BLDGSCHEME,BLDGCLASS,OCCSCHEME,OCCTYPE,NUMBLDGS,EQCV1VAL,EQCV1VCUR,EQCV1DED,EQCV1DCUR,EQCV1LIMIT,EQCV1LCUR,EQCV2VAL,EQCV2VCUR,EQCV2DED,EQCV2DCUR,EQCV2LIMIT,EQCV2LCUR,EQSITELIM,EQSITELCUR,EQSITEDED,EQSITEDCUR,EQCOMBINEDLIM,EQCOMBINEDLCUR,EQCOMBINEDDED,EQCOMBINEDDCUR,COND1TYPE,COND1NAME,COND1LIMIT,COND1DEDUCTIBLE
11111,2,33.88894,35.49442,XXX,0,0,0,0,0,BEIRUT,0,LB,0,LB,RMS,1A,ATC,0,1,966385,USD,0,USD,,USD,0,USD,0,USD,0,USD,0,USD,0,USD,0,USD,0,USD,XXX,XXX,0,0
11111,3,33.7167,35.45,XXX,0,0,0,0,0,BEIRUT,0,LB,0,LB,RMS,3,ATC,0,1,195864,USD,0,USD,0,USD,0,USD,0,USD,0,USD,0,USD,0,USD,0,USD,0,USD,XXX,XXX,0,0
11111,4,33.7167,35.5167,XXX,0,0,0,0,0,BEIRUT,0,LB,0,LB,RMS,3,ATC,0,1,81506,USD,0,USD,0,USD,0,USD,0,USD,0,USD,0,USD,0,USD,0,USD,0,USD,XXX,XXX,0,0
11111,5,33.7292,35.4542,XXX,0,0,0,0,0,BEIRUT,0,LB,0,LB,RMS,3,ATC,0,1,606553,USD,0,USD,0,USD,0,USD,0,USD,0,USD,0,USD,0,USD,0,USD,0,USD,XXX,XXX,0,0
11111,6,33.7375,35.4542,XXX,0,0,0,0,0,BEIRUT,0,LB,0,LB,RMS,3,ATC,0,1,952421,USD,0,USD,0,USD,0,USD,0,USD,0,USD,0,USD,0,USD,0,USD,0,USD,XXX,XXX,0,0
11111,7,33.7375,35.5208,XXX,0,0,0,0,0,BEIRUT,0,LB,0,LB,RMS,2,ATC,0,1,778570,USD,0,USD,0,USD,0,USD,0,USD,0,USD,0,USD,0,USD,0,USD,0,USD,XXX,XXX,0,0
11111,8,33.7417,35.4583,XXX,0,0,0,0,0,BEIRUT,0,LB,0,LB,RMS,6,ATC,0,1,31208,USD,0,USD,0,USD,0,USD,0,USD,0,USD,0,USD,0,USD,0,USD,0,USD,XXX,XXX,0,0
11111,9,33.7417,35.525,XXX,0,0,0,0,0,BEIRUT,0,LB,0,LB,RMS,2,ATC,0,1,349983,USD,0,USD,0,USD,0,USD,0,USD,0,USD,0,USD,0,USD,0,USD,0,USD,XXX,XXX,0,0
11111,10,33.75,35.55,XXX,0,0,0,0,0,BEIRUT,0,LB,0,LB,RMS,2,ATC,0,1,371334,USD,0,USD,0,USD,0,USD,0,USD,0,USD,0,USD,0,USD,0,USD,0,USD,XXX,XXX,0,0
11111,11,33.75,35.5833,XXX,0,0,0,0,0,BEIRUT,0,LB,0,LB,RMS,4,ATC,0,1,792015,USD,0,USD,0,USD,0,USD,0,USD,0,USD,0,USD,0,USD,0,USD,0,USD,XXX,XXX,0,0
11111,12,33.7667,35.5333,XXX,0,0,0,0,0,BEIRUT,0,LB,0,LB,RMS,3,ATC,0,1,436403,USD,0,USD,0,USD,0,USD,0,USD,0,USD,0,USD,0,USD,0,USD,0,USD,XXX,XXX,0,0
11111,13,33.7833,35.4833,XXX,0,0,0,0,0,BEIRUT,0,LB,0,LB,RMS,2,ATC,0,1,212164,USD,0,USD,0,USD,0,USD,0,USD,0,USD,0,USD,0,USD,0,USD,0,USD,XXX,XXX,0,0
11111,14,33.7833,35.5167,XXX,0,0,0,0,0,BEIRUT,0,LB,0,LB,RMS,2,ATC,0,1,207195,USD,0,USD,0,USD,0,USD,0,USD,0,USD,0,USD,0,USD,0,USD,0,USD,XXX,XXX,0,0
11111,15,33.7833,35.55,XXX,0,0,0,0,0,BEIRUT,0,LB,0,LB,RMS,2,ATC,0,1,970020,USD,0,USD,0,USD,0,USD,0,USD,0,USD,0,USD,0,USD,0,USD,0,USD,XXX,XXX,0,0
11111,16,33.7875,35.4875,XXX,0,0,0,0,0,BEIRUT,0,LB,0,LB,RMS,4,ATC,0,1,493101,USD,0,USD,0,USD,0,USD,0,USD,0,USD,0,USD,0,USD,0,USD,0,USD,XXX,XXX,0,0
11111,17,33.7917,35.5583,XXX,0,0,0,0,0,BEIRUT,0,LB,0,LB,RMS,6,ATC,0,1,627149,USD,0,USD,0,USD,0,USD,0,USD,0,USD,0,USD,0,USD,0,USD,0,USD,XXX,XXX,0,0
11111,18,33.7917,35.6583,XXX,0,0,0,0,0,BEIRUT,0,LB,0,LB,RMS,4,ATC,0,1,204200,USD,0,USD,0,USD,0,USD,0,USD,0,USD,0,USD,0,USD,0,USD,0,USD,XXX,XXX,0,0
11111,19,33.7917,35.675,XXX,0,0,0,0,0,BEIRUT,0,LB,0,LB,RMS,4,ATC,0,1,25674,USD,0,USD,0,USD,0,USD,0,USD,0,USD,0,USD,0,USD,0,USD,0,USD,XXX,XXX,0,0
11111,20,33.8,35.6333,XXX,0,0,0,0,0,BEIRUT,0,LB,0,LB,RMS,6,ATC,0,1,957108,USD,0,USD,0,USD,0,USD,0,USD,0,USD,0,USD,0,USD,0,USD,0,USD,XXX,XXX,0,0
11111,21,33.8042,35.5125,XXX,0,0,0,0,0,BEIRUT,0,LB,0,LB,RMS,2,ATC,0,1,506242,USD,0,USD,0,USD,0,USD,0,USD,0,USD,0,USD,0,USD,0,USD,0,USD,XXX,XXX,0,0
11111,22,33.8042,35.5958,XXX,0,0,0,0,0,BEIRUT,0,LB,0,LB,RMS,4,ATC,0,1,597174,USD,0,USD,0,USD,0,USD,0,USD,0,USD,0,USD,0,USD,0,USD,0,USD,XXX,XXX,0,0
11111,23,33.8042,35.6042,XXX,0,0,0,0,0,BEIRUT,0,LB,0,LB,RMS,4,ATC,0,1,145117,USD,0,USD,0,USD,0,USD,0,USD,0,USD,0,USD,0,USD,0,USD,0,USD,XXX,XXX,0,0
11111,24,33.8083,35.5083,XXX,0,0,0,0,0,BEIRUT,0,LB,0,LB,RMS,6,ATC,0,1,162608,USD,0,USD,0,USD,0,USD,0,USD,0,USD,0,USD,0,USD,0,USD,0,USD,XXX,XXX,0,0
11111,25,33.8083,35.525,XXX,0,0,0,0,0,BEIRUT,0,LB,0,LB,RMS,0,ATC,0,1,752716,USD,0,USD,0,USD,0,USD,0,USD,0,USD,0,USD,0,USD,0,USD,0,USD,XXX,XXX,0,0
11111,26,33.8083,35.625,XXX,0,0,0,0,0,BEIRUT,0,LB,0,LB,RMS,3,ATC,0,1,14159,USD,0,USD,0,USD,0,USD,0,USD,0,USD,0,USD,0,USD,0,USD,0,USD,XXX,XXX,0,0
11111,27,33.8083,35.6583,XXX,0,0,0,0,0,BEIRUT,0,LB,0,LB,RMS,1,ATC,0,1,405649,USD,0,USD,0,USD,0,USD,0,USD,0,USD,0,USD,0,USD,0,USD,0,USD,XXX,XXX,0,0
11111,28,33.8125,35.5208,XXX,0,0,0,0,0,BEIRUT,0,LB,0,LB,RMS,1,ATC,0,1,912502,USD,0,USD,0,USD,0,USD,0,USD,0,USD,0,USD,0,USD,0,USD,0,USD,XXX,XXX,0,0
11111,29,33.8125,35.6042,XXX,0,0,0,0,0,BEIRUT,0,LB,0,LB,RMS,3,ATC,0,1,597763,USD,0,USD,0,USD,0,USD,0,USD,0,USD,0,USD,0,USD,0,USD,0,USD,XXX,XXX,0,0
11111,30,33.8125,35.6125,XXX,0,0,0,0,0,BEIRUT,0,LB,0,LB,RMS,2,ATC,0,1,606008,USD,0,USD,0,USD,0,USD,0,USD,0,USD,0,USD,0,USD,0,USD,0,USD,XXX,XXX,0,0
11111,31,33.8167,35.55,XXX,0,0,0,0,0,BEIRUT,0,LB,0,LB,RMS,5,ATC,0,1,828965,USD,0,USD,0,USD,0,USD,0,USD,0,USD,0,USD,0,USD,0,USD,0,USD,XXX,XXX,0,0
11111,32,33.8167,35.5833,XXX,0,0,0,0,0,BEIRUT,0,LB,0,LB,RMS,2,ATC,0,1,542281,USD,0,USD,0,USD,0,USD,0,USD,0,USD,0,USD,0,USD,0,USD,0,USD,XXX,XXX,0,0
11111,33,33.8167,35.6167,XXX,0,0,0,0,0,BEIRUT,0,LB,0,LB,RMS,4,ATC,0,1,394305,USD,0,USD,0,USD,0,USD,0,USD,0,USD,0,USD,0,USD,0,USD,0,USD,XXX,XXX,0,0
11111,34,33.8167,35.7167,XXX,0,0,0,0,0,BEIRUT,0,LB,0,LB,RMS,2,ATC,0,1,595435,USD,0,USD,0,USD,0,USD,0,USD,0,USD,0,USD,0,USD,0,USD,0,USD,XXX,XXX,0,0
11111,35,33.8208,35.5125,XXX,0,0,0,0,0,BEIRUT,0,LB,0,LB,RMS,0,ATC,0,1,445190,USD,0,USD,0,USD,0,USD,0,USD,0,USD,0,USD,0,USD,0,USD,0,USD,XXX,XXX,0,0
11111,36,33.825,35.525,XXX,0,0,0,0,0,BEIRUT,0,LB,0,LB,RMS,5,ATC,0,1,502069,USD,0,USD,0,USD,0,USD,0,USD,0,USD,0,USD,0,USD,0,USD,0,USD,XXX,XXX,0,0
11111,37,33.825,35.5417,XXX,0,0,0,0,0,BEIRUT,0,LB,0,LB,RMS,3,ATC,0,1,498359,USD,0,USD,0,USD,0,USD,0,USD,0,USD,0,USD,0,USD,0,USD,0,USD,XXX,XXX,0,0
11111,38,33.8292,35.5042,XXX,0,0,0,0,0,BEIRUT,0,LB,0,LB,RMS,6,ATC,0,1,869945,USD,0,USD,0,USD,0,USD,0,USD,0,USD,0,USD,0,USD,0,USD,0,USD,XXX,XXX,0,0
11111,39,33.8292,35.5125,XXX,0,0,0,0,0,BEIRUT,0,LB,0,LB,RMS,5,ATC,0,1,834325,USD,0,USD,0,USD,0,USD,0,USD,0,USD,0,USD,0,USD,0,USD,0,USD,XXX,XXX,0,0
11111,40,33.8375,35.4958,XXX,0,0,0,0,0,BEIRUT,0,LB,0,LB,RMS,4,ATC,0,1,818482,USD,0,USD,0,USD,0,USD,0,USD,0,USD,0,USD,0,USD,0,USD,0,USD,XXX,XXX,0,0
11111,41,33.8375,35.5042,XXX,0,0,0,0,0,BEIRUT,0,LB,0,LB,RMS,2,ATC,0,1,972475,USD,0,USD,0,USD,0,USD,0,USD,0,USD,0,USD,0,USD,0,USD,0,USD,XXX,XXX,0,0
11111,42,33.8375,35.5125,XXX,0,0,0,0,0,BEIRUT,0,LB,0,LB,RMS,3,ATC,0,1,77514,USD,0,USD,0,USD,0,USD,0,USD,0,USD,0,USD,0,USD,0,USD,0,USD,XXX,XXX,0,0
11111,43,33.8375,35.5208,XXX,0,0,0,0,0,BEIRUT,0,LB,0,LB,RMS,2,ATC,0,1,549375,USD,0,USD,0,USD,0,USD,0,USD,0,USD,0,USD,0,USD,0,USD,0,USD,XXX,XXX,0,0
11111,44,33.8375,35.5292,XXX,0,0,0,0,0,BEIRUT,0,LB,0,LB,RMS,2,ATC,0,1,450630,USD,0,USD,0,USD,0,USD,0,USD,0,USD,0,USD,0,USD,0,USD,0,USD,XXX,XXX,0,0
11111,45,33.8375,35.5375,XXX,0,0,0,0,0,BEIRUT,0,LB,0,LB,RMS,0,ATC,0,1,722369,USD,0,USD,0,USD,0,USD,0,USD,0,USD,0,USD,0,USD,0,USD,0,USD,XXX,XXX,0,0
11111,46,33.8417,35.5583,XXX,0,0,0,0,0,BEIRUT,0,LB,0,LB,RMS,6,ATC,0,1,973198,USD,0,USD,0,USD,0,USD,0,USD,0,USD,0,USD,0,USD,0,USD,0,USD,XXX,XXX,0,0
11111,47,33.8458,35.4875,XXX,0,0,0,0,0,BEIRUT,0,LB,0,LB,RMS,5,ATC,0,1,792593,USD,0,USD,0,USD,0,USD,0,USD,0,USD,0,USD,0,USD,0,USD,0,USD,XXX,XXX,0,0
11111,48,33.8458,35.4958,XXX,0,0,0,0,0,BEIRUT,0,LB,0,LB,RMS,6,ATC,0,1,299911,USD,0,USD,0,USD,0,USD,0,USD,0,USD,0,USD,0,USD,0,USD,0,USD,XXX,XXX,0,0
11111,49,33.8458,35.5042,XXX,0,0,0,0,0,BEIRUT,0,LB,0,LB,RMS,6,ATC,0,1,526256,USD,0,USD,0,USD,0,USD,0,USD,0,USD,0,USD,0,USD,0,USD,0,USD,XXX,XXX,0,0
11111,50,33.8458,35.5125,XXX,0,0,0,0,0,BEIRUT,0,LB,0,LB,RMS,4,ATC,0,1,411826,USD,0,USD,0,USD,0,USD,0,USD,0,USD,0,USD,0,USD,0,USD,0,USD,XXX,XXX,0,0
11111,51,33.8458,35.5208,XXX,0,0,0,0,0,BEIRUT,0,LB,0,LB,RMS,6,ATC,0,1,963405,USD,0,USD,0,USD,0,USD,0,USD,0,USD,0,USD,0,USD,0,USD,0,USD,XXX,XXX,0,0
11111,52,33.8458,35.5292,XXX,0,0,0,0,0,BEIRUT,0,LB,0,LB,RMS,0,ATC,0,1,870986,USD,0,USD,0,USD,0,USD,0,USD,0,USD,0,USD,0,USD,0,USD,0,USD,XXX,XXX,0,0
11111,53,33.8458,35.5375,XXX,0,0,0,0,0,BEIRUT,0,LB,0,LB,RMS,5,ATC,0,1,812807,USD,0,USD,0,USD,0,USD,0,USD,0,USD,0,USD,0,USD,0,USD,0,USD,XXX,XXX,0,0
11111,54,33.8458,35.5458,XXX,0,0,0,0,0,BEIRUT,0,LB,0,LB,RMS,2,ATC,0,1,646579,USD,0,USD,0,USD,0,USD,0,USD,0,USD,0,USD,0,USD,0,USD,0,USD,XXX,XXX,0,0
11111,55,33.85,35.55,XXX,0,0,0,0,0,BEIRUT,0,LB,0,LB,RMS,1,ATC,0,1,822373,USD,0,USD,0,USD,0,USD,0,USD,0,USD,0,USD,0,USD,0,USD,0,USD,XXX,XXX,0,0
11111,56,33.85,35.5833,XXX,0,0,0,0,0,BEIRUT,0,LB,0,LB,RMS,6,ATC,0,1,395349,USD,0,USD,0,USD,0,USD,0,USD,0,USD,0,USD,0,USD,0,USD,0,USD,XXX,XXX,0,0
11111,57,33.8542,35.4875,XXX,0,0,0,0,0,BEIRUT,0,LB,0,LB,RMS,3,ATC,0,1,999437,USD,0,USD,0,USD,0,USD,0,USD,0,USD,0,USD,0,USD,0,USD,0,USD,XXX,XXX,0,0
11111,58,33.8542,35.4958,XXX,0,0,0,0,0,BEIRUT,0,LB,0,LB,RMS,1,ATC,0,1,583097,USD,0,USD,0,USD,0,USD,0,USD,0,USD,0,USD,0,USD,0,USD,0,USD,XXX,XXX,0,0
11111,59,33.8542,35.5042,XXX,0,0,0,0,0,BEIRUT,0,LB,0,LB,RMS,6,ATC,0,1,827198,USD,0,USD,0,USD,0,USD,0,USD,0,USD,0,USD,0,USD,0,USD,0,USD,XXX,XXX,0,0
11111,60,33.8542,35.5125,XXX,0,0,0,0,0,BEIRUT,0,LB,0,LB,RMS,0,ATC,0,1,552368,USD,0,USD,0,USD,0,USD,0,USD,0,USD,0,USD,0,USD,0,USD,0,USD,XXX,XXX,0,0
11111,61,33.8542,35.5208,XXX,0,0,0,0,0,BEIRUT,0,LB,0,LB,RMS,5,ATC,0,1,477208,USD,0,USD,0,USD,0,USD,0,USD,0,USD,0,USD,0,USD,0,USD,0,USD,XXX,XXX,0,0
11111,62,33.8542,35.5292,XXX,0,0,0,0,0,BEIRUT,0,LB,0,LB,RMS,0,ATC,0,1,210292,USD,0,USD,0,USD,0,USD,0,USD,0,USD,0,USD,0,USD,0,USD,0,USD,XXX,XXX,0,0
11111,63,33.8542,35.5375,XXX,0,0,0,0,0,BEIRUT,0,LB,0,LB,RMS,2,ATC,0,1,879142,USD,0,USD,0,USD,0,USD,0,USD,0,USD,0,USD,0,USD,0,USD,0,USD,XXX,XXX,0,0
11111,64,33.8542,35.5458,XXX,0,0,0,0,0,BEIRUT,0,LB,0,LB,RMS,0,ATC,0,1,903190,USD,0,USD,0,USD,0,USD,0,USD,0,USD,0,USD,0,USD,0,USD,0,USD,XXX,XXX,0,0
11111,65,33.8542,35.5708,XXX,0,0,0,0,0,BEIRUT,0,LB,0,LB,RMS,1,ATC,0,1,503308,USD,0,USD,0,USD,0,USD,0,USD,0,USD,0,USD,0,USD,0,USD,0,USD,XXX,XXX,0,0
11111,66,33.8542,35.5792,XXX,0,0,0,0,0,BEIRUT,0,LB,0,LB,RMS,5,ATC,0,1,749002,USD,0,USD,0,USD,0,USD,0,USD,0,USD,0,USD,0,USD,0,USD,0,USD,XXX,XXX,0,0
11111,67,33.8583,35.5917,XXX,0,0,0,0,0,BEIRUT,0,LB,0,LB,RMS,2,ATC,0,1,425696,USD,0,USD,0,USD,0,USD,0,USD,0,USD,0,USD,0,USD,0,USD,0,USD,XXX,XXX,0,0
11111,68,33.8625,35.4875,XXX,0,0,0,0,0,BEIRUT,0,LB,0,LB,RMS,1,ATC,0,1,937354,USD,0,USD,0,USD,0,USD,0,USD,0,USD,0,USD,0,USD,0,USD,0,USD,XXX,XXX,0,0
11111,69,33.8625,35.4958,XXX,0,0,0,0,0,BEIRUT,0,LB,0,LB,RMS,6,ATC,0,1,589095,USD,0,USD,0,USD,0,USD,0,USD,0,USD,0,USD,0,USD,0,USD,0,USD,XXX,XXX,0,0
11111,70,33.8625,35.5042,XXX,0,0,0,0,0,BEIRUT,0,LB,0,LB,RMS,2,ATC,0,1,588692,USD,0,USD,0,USD,0,USD,0,USD,0,USD,0,USD,0,USD,0,USD,0,USD,XXX,XXX,0,0
11111,71,33.8625,35.5125,XXX,0,0,0,0,0,BEIRUT,0,LB,0,LB,RMS,4,ATC,0,1,462850,USD,0,USD,0,USD,0,USD,0,USD,0,USD,0,USD,0,USD,0,USD,0,USD,XXX,XXX,0,0
11111,72,33.8625,35.5208,XXX,0,0,0,0,0,BEIRUT,0,LB,0,LB,RMS,5,ATC,0,1,1423,USD,0,USD,0,USD,0,USD,0,USD,0,USD,0,USD,0,USD,0,USD,0,USD,XXX,XXX,0,0
11111,73,33.8625,35.5292,XXX,0,0,0,0,0,BEIRUT,0,LB,0,LB,RMS,4,ATC,0,1,259746,USD,0,USD,0,USD,0,USD,0,USD,0,USD,0,USD,0,USD,0,USD,0,USD,XXX,XXX,0,0
11111,74,33.8625,35.5375,XXX,0,0,0,0,0,BEIRUT,0,LB,0,LB,RMS,2,ATC,0,1,340336,USD,0,USD,0,USD,0,USD,0,USD,0,USD,0,USD,0,USD,0,USD,0,USD,XXX,XXX,0,0
11111,75,33.8625,35.5458,XXX,0,0,0,0,0,BEIRUT,0,LB,0,LB,RMS,6,ATC,0,1,594295,USD,0,USD,0,USD,0,USD,0,USD,0,USD,0,USD,0,USD,0,USD,0,USD,XXX,XXX,0,0
11111,76,33.8625,35.5542,XXX,0,0,0,0,0,BEIRUT,0,LB,0,LB,RMS,5,ATC,0,1,904107,USD,0,USD,0,USD,0,USD,0,USD,0,USD,0,USD,0,USD,0,USD,0,USD,XXX,XXX,0,0
11111,77,33.8625,35.6042,XXX,0,0,0,0,0,BEIRUT,0,LB,0,LB,RMS,2,ATC,0,1,911130,USD,0,USD,0,USD,0,USD,0,USD,0,USD,0,USD,0,USD,0,USD,0,USD,XXX,XXX,0,0
11111,78,33.8708,35.4875,XXX,0,0,0,0,0,BEIRUT,0,LB,0,LB,RMS,6,ATC,0,1,352202,USD,0,USD,0,USD,0,USD,0,USD,0,USD,0,USD,0,USD,0,USD,0,USD,XXX,XXX,0,0
11111,79,33.8708,35.4958,XXX,0,0,0,0,0,BEIRUT,0,LB,0,LB,RMS,4,ATC,0,1,727574,USD,0,USD,0,USD,0,USD,0,USD,0,USD,0,USD,0,USD,0,USD,0,USD,XXX,XXX,0,0
11111,80,33.8708,35.5042,XXX,0,0,0,0,0,BEIRUT,0,LB,0,LB,RMS,5,ATC,0,1,793336,USD,0,USD,0,USD,0,USD,0,USD,0,USD,0,USD,0,USD,0,USD,0,USD,XXX,XXX,0,0
11111,81,33.8708,35.5125,XXX,0,0,0,0,0,BEIRUT,0,LB,0,LB,RMS,4,ATC,0,1,936162,USD,0,USD,0,USD,0,USD,0,USD,0,USD,0,USD,0,USD,0,USD,0,USD,XXX,XXX,0,0
11111,82,33.8708,35.5208,XXX,0,0,0,0,0,BEIRUT,0,LB,0,LB,RMS,6,ATC,0,1,869841,USD,0,USD,0,USD,0,USD,0,USD,0,USD,0,USD,0,USD,0,USD,0,USD,XXX,XXX,0,0
11111,83,33.8708,35.5292,XXX,0,0,0,0,0,BEIRUT,0,LB,0,LB,RMS,2,ATC,0,1,856872,USD,0,USD,0,USD,0,USD,0,USD,0,USD,0,USD,0,USD,0,USD,0,USD,XXX,XXX,0,0
11111,84,33.8708,35.5375,XXX,0,0,0,0,0,BEIRUT,0,LB,0,LB,RMS,3,ATC,0,1,306100,USD,0,USD,0,USD,0,USD,0,USD,0,USD,0,USD,0,USD,0,USD,0,USD,XXX,XXX,0,0
11111,85,33.8708,35.5458,XXX,0,0,0,0,0,BEIRUT,0,LB,0,LB,RMS,5,ATC,0,1,392796,USD,0,USD,0,USD,0,USD,0,USD,0,USD,0,USD,0,USD,0,USD,0,USD,XXX,XXX,0,0
11111,86,33.8708,35.5542,XXX,0,0,0,0,0,BEIRUT,0,LB,0,LB,RMS,3,ATC,0,1,404153,USD,0,USD,0,USD,0,USD,0,USD,0,USD,0,USD,0,USD,0,USD,0,USD,XXX,XXX,0,0
11111,87,33.8708,35.5625,XXX,0,0,0,0,0,BEIRUT,0,LB,0,LB,RMS,6,ATC,0,1,832036,USD,0,USD,0,USD,0,USD,0,USD,0,USD,0,USD,0,USD,0,USD,0,USD,XXX,XXX,0,0
11111,88,33.875,35.6083,XXX,0,0,0,0,0,BEIRUT,0,LB,0,LB,RMS,5,ATC,0,1,348994,USD,0,USD,0,USD,0,USD,0,USD,0,USD,0,USD,0,USD,0,USD,0,USD,XXX,XXX,0,0
11111,89,33.8792,35.4875,XXX,0,0,0,0,0,BEIRUT,0,LB,0,LB,RMS,0,ATC,0,1,154050,USD,0,USD,0,USD,0,USD,0,USD,0,USD,0,USD,0,USD,0,USD,0,USD,XXX,XXX,0,0
11111,90,33.8792,35.4958,XXX,0,0,0,0,0,BEIRUT,0,LB,0,LB,RMS,1,ATC,0,1,191417,USD,0,USD,0,USD,0,USD,0,USD,0,USD,0,USD,0,USD,0,USD,0,USD,XXX,XXX,0,0
11111,91,33.8792,35.5042,XXX,0,0,0,0,0,BEIRUT,0,LB,0,LB,RMS,5,ATC,0,1,33328,USD,0,USD,0,USD,0,USD,0,USD,0,USD,0,USD,0,USD,0,USD,0,USD,XXX,XXX,0,0
11111,92,33.8792,35.5125,XXX,0,0,0,0,0,BEIRUT,0,LB,0,LB,RMS,4,ATC,0,1,698578,USD,0,USD,0,USD,0,USD,0,USD,0,USD,0,USD,0,USD,0,USD,0,USD,XXX,XXX,0,0
11111,93,33.8792,35.5208,XXX,0,0,0,0,0,BEIRUT,0,LB,0,LB,RMS,3,ATC,0,1,758987,USD,0,USD,0,USD,0,USD,0,USD,0,USD,0,USD,0,USD,0,USD,0,USD,XXX,XXX,0,0
11111,94,33.8792,35.5292,XXX,0,0,0,0,0,BEIRUT,0,LB,0,LB,RMS,4,ATC,0,1,573055,USD,0,USD,0,USD,0,USD,0,USD,0,USD,0,USD,0,USD,0,USD,0,USD,XXX,XXX,0,0
11111,95,33.8792,35.5375,XXX,0,0,0,0,0,BEIRUT,0,LB,0,LB,RMS,2,ATC,0,1,682119,USD,0,USD,0,USD,0,USD,0,USD,0,USD,0,USD,0,USD,0,USD,0,USD,XXX,XXX,0,0
11111,96,33.8792,35.5458,XXX,0,0,0,0,0,BEIRUT,0,LB,0,LB,RMS,3,ATC,0,1,893049,USD,0,USD,0,USD,0,USD,0,USD,0,USD,0,USD,0,USD,0,USD,0,USD,XXX,XXX,0,0
11111,97,33.8792,35.5542,XXX,0,0,0,0,0,BEIRUT,0,LB,0,LB,RMS,3,ATC,0,1,402486,USD,0,USD,0,USD,0,USD,0,USD,0,USD,0,USD,0,USD,0,USD,0,USD,XXX,XXX,0,0
11111,98,33.8792,35.5625,XXX,0,0,0,0,0,BEIRUT,0,LB,0,LB,RMS,4,ATC,0,1,280884,USD,0,USD,0,USD,0,USD,0,USD,0,USD,0,USD,0,USD,0,USD,0,USD,XXX,XXX,0,0
11111,99,33.8792,35.5708,XXX,0,0,0,0,0,BEIRUT,0,LB,0,LB,RMS,1,ATC,0,1,112483,USD,0,USD,0,USD,0,USD,0,USD,0,USD,0,USD,0,USD,0,USD,0,USD,XXX,XXX,0,0
11111,100,33.8792,35.5792,XXX,0,0,0,0,0,BEIRUT,0,LB,0,LB,RMS,4,ATC,0,1,831850,USD,0,USD,0,USD,0,USD,0,USD,0,USD,0,USD,0,USD,0,USD,0,USD,XXX,XXX,0,0
11111,101,33.8833,35.5833,XXX,0,0,0,0,0,BEIRUT,0,LB,0,LB,RMS,6,ATC,0,1,135964,USD,0,USD,0,USD,0,USD,0,USD,0,USD,0,USD,0,USD,0,USD,0,USD,XXX,XXX,0,0
11111,102,33.8833,35.65,XXX,0,0,0,0,0,BEIRUT,0,LB,0,LB,RMS,2,ATC,0,1,626507,USD,0,USD,0,USD,0,USD,0,USD,0,USD,0,USD,0,USD,0,USD,0,USD,XXX,XXX,0,0
11111,103,33.8875,35.4708,XXX,0,0,0,0,0,BEIRUT,0,LB,0,LB,RMS,2,ATC,0,1,19674,USD,0,USD,0,USD,0,USD,0,USD,0,USD,0,USD,0,USD,0,USD,0,USD,XXX,XXX,0,0
11111,104,33.8875,35.4792,XXX,0,0,0,0,0,BEIRUT,0,LB,0,LB,RMS,5,ATC,0,1,302230,USD,0,USD,0,USD,0,USD,0,USD,0,USD,0,USD,0,USD,0,USD,0,USD,XXX,XXX,0,0
11111,105,33.8875,35.4875,XXX,0,0,0,0,0,BEIRUT,0,LB,0,LB,RMS,2,ATC,0,1,53788,USD,0,USD,0,USD,0,USD,0,USD,0,USD,0,USD,0,USD,0,USD,0,USD,XXX,XXX,0,0
11111,106,33.8875,35.4958,XXX,0,0,0,0,0,BEIRUT,0,LB,0,LB,RMS,3,ATC,0,1,750504,USD,0,USD,0,USD,0,USD,0,USD,0,USD,0,USD,0,USD,0,USD,0,USD,XXX,XXX,0,0
11111,107,33.8875,35.5042,XXX,0,0,0,0,0,BEIRUT,0,LB,0,LB,RMS,4,ATC,0,1,555100,USD,0,USD,0,USD,0,USD,0,USD,0,USD,0,USD,0,USD,0,USD,0,USD,XXX,XXX,0,0
11111,108,33.8875,35.5125,XXX,0,0,0,0,0,BEIRUT,0,LB,0,LB,RMS,1,ATC,0,1,812827,USD,0,USD,0,USD,0,USD,0,USD,0,USD,0,USD,0,USD,0,USD,0,USD,XXX,XXX,0,0
11111,109,33.8875,35.5208,XXX,0,0,0,0,0,BEIRUT,0,LB,0,LB,RMS,4,ATC,0,1,38386,USD,0,USD,0,USD,0,USD,0,USD,0,USD,0,USD,0,USD,0,USD,0,USD,XXX,XXX,0,0
11111,110,33.8875,35.5292,XXX,0,0,0,0,0,BEIRUT,0,LB,0,LB,RMS,2,ATC,0,1,516354,USD,0,USD,0,USD,0,USD,0,USD,0,USD,0,USD,0,USD,0,USD,0,USD,XXX,XXX,0,0
11111,111,33.8875,35.5375,XXX,0,0,0,0,0,BEIRUT,0,LB,0,LB,RMS,6,ATC,0,1,902968,USD,0,USD,0,USD,0,USD,0,USD,0,USD,0,USD,0,USD,0,USD,0,USD,XXX,XXX,0,0
11111,112,33.8875,35.5458,XXX,0,0,0,0,0,BEIRUT,0,LB,0,LB,RMS,3,ATC,0,1,812609,USD,0,USD,0,USD,0,USD,0,USD,0,USD,0,USD,0,USD,0,USD,0,USD,XXX,XXX,0,0
11111,113,33.8875,35.5542,XXX,0,0,0,0,0,BEIRUT,0,LB,0,LB,RMS,0,ATC,0,1,811874,USD,0,USD,0,USD,0,USD,0,USD,0,USD,0,USD,0,USD,0,USD,0,USD,XXX,XXX,0,0
11111,114,33.8875,35.5625,XXX,0,0,0,0,0,BEIRUT,0,LB,0,LB,RMS,5,ATC,0,1,367325,USD,0,USD,0,USD,0,USD,0,USD,0,USD,0,USD,0,USD,0,USD,0,USD,XXX,XXX,0,0
11111,115,33.8875,35.5708,XXX,0,0,0,0,0,BEIRUT,0,LB,0,LB,RMS,4,ATC,0,1,525632,USD,0,USD,0,USD,0,USD,0,USD,0,USD,0,USD,0,USD,0,USD,0,USD,XXX,XXX,0,0
11111,116,33.8875,35.6375,XXX,0,0,0,0,0,BEIRUT,0,LB,0,LB,RMS,1,ATC,0,1,664478,USD,0,USD,0,USD,0,USD,0,USD,0,USD,0,USD,0,USD,0,USD,0,USD,XXX,XXX,0,0
11111,117,33.8917,35.625,XXX,0,0,0,0,0,BEIRUT,0,LB,0,LB,RMS,1,ATC,0,1,110005,USD,0,USD,0,USD,0,USD,0,USD,0,USD,0,USD,0,USD,0,USD,0,USD,XXX,XXX,0,0
11111,118,33.8917,35.675,XXX,0,0,0,0,0,BEIRUT,0,LB,0,LB,RMS,3,ATC,0,1,206977,USD,0,USD,0,USD,0,USD,0,USD,0,USD,0,USD,0,USD,0,USD,0,USD,XXX,XXX,0,0
11111,119,33.8958,35.4708,XXX,0,0,0,0,0,BEIRUT,0,LB,0,LB,RMS,2,ATC,0,1,646172,USD,0,USD,0,USD,0,USD,0,USD,0,USD,0,USD,0,USD,0,USD,0,USD,XXX,XXX,0,0
11111,120,33.8958,35.4792,XXX,0,0,0,0,0,BEIRUT,0,LB,0,LB,RMS,6,ATC,0,1,51718,USD,0,USD,0,USD,0,USD,0,USD,0,USD,0,USD,0,USD,0,USD,0,USD,XXX,XXX,0,0
11111,121,33.8958,35.4875,XXX,0,0,0,0,0,BEIRUT,0,LB,0,LB,RMS,2,ATC,0,1,802162,USD,0,USD,0,USD,0,USD,0,USD,0,USD,0,USD,0,USD,0,USD,0,USD,XXX,XXX,0,0
11111,122,33.8958,35.4958,XXX,0,0,0,0,0,BEIRUT,0,LB,0,LB,RMS,0,ATC,0,1,951340,USD,0,USD,0,USD,0,USD,0,USD,0,USD,0,USD,0,USD,0,USD,0,USD,XXX,XXX,0,0
11111,123,33.8958,35.5042,XXX,0,0,0,0,0,BEIRUT,0,LB,0,LB,RMS,2,ATC,0,1,683513,USD,0,USD,0,USD,0,USD,0,USD,0,USD,0,USD,0,USD,0,USD,0,USD,XXX,XXX,0,0
11111,124,33.8958,35.5125,XXX,0,0,0,0,0,BEIRUT,0,LB,0,LB,RMS,4,ATC,0,1,31889,USD,0,USD,0,USD,0,USD,0,USD,0,USD,0,USD,0,USD,0,USD,0,USD,XXX,XXX,0,0
11111,125,33.8958,35.5208,XXX,0,0,0,0,0,BEIRUT,0,LB,0,LB,RMS,5,ATC,0,1,435189,USD,0,USD,0,USD,0,USD,0,USD,0,USD,0,USD,0,USD,0,USD,0,USD,XXX,XXX,0,0
11111,126,33.8958,35.5292,XXX,0,0,0,0,0,BEIRUT,0,LB,0,LB,RMS,2,ATC,0,1,922070,USD,0,USD,0,USD,0,USD,0,USD,0,USD,0,USD,0,USD,0,USD,0,USD,XXX,XXX,0,0
11111,127,33.8958,35.5375,XXX,0,0,0,0,0,BEIRUT,0,LB,0,LB,RMS,2,ATC,0,1,428635,USD,0,USD,0,USD,0,USD,0,USD,0,USD,0,USD,0,USD,0,USD,0,USD,XXX,XXX,0,0
11111,128,33.8958,35.5458,XXX,0,0,0,0,0,BEIRUT,0,LB,0,LB,RMS,5,ATC,0,1,75477,USD,0,USD,0,USD,0,USD,0,USD,0,USD,0,USD,0,USD,0,USD,0,USD,XXX,XXX,0,0
11111,129,33.8958,35.5542,XXX,0,0,0,0,0,BEIRUT,0,LB,0,LB,RMS,2,ATC,0,1,704482,USD,0,USD,0,USD,0,USD,0,USD,0,USD,0,USD,0,USD,0,USD,0,USD,XXX,XXX,0,0
11111,130,33.8958,35.5625,XXX,0,0,0,0,0,BEIRUT,0,LB,0,LB,RMS,0,ATC,0,1,599730,USD,0,USD,0,USD,0,USD,0,USD,0,USD,0,USD,0,USD,0,USD,0,USD,XXX,XXX,0,0
11111,131,33.8958,35.5708,XXX,0,0,0,0,0,BEIRUT,0,LB,0,LB,RMS,5,ATC,0,1,790901,USD,0,USD,0,USD,0,USD,0,USD,0,USD,0,USD,0,USD,0,USD,0,USD,XXX,XXX,0,0
11111,132,33.8958,35.5792,XXX,0,0,0,0,0,BEIRUT,0,LB,0,LB,RMS,2,ATC,0,1,396353,USD,0,USD,0,USD,0,USD,0,USD,0,USD,0,USD,0,USD,0,USD,0,USD,XXX,XXX,0,0
11111,133,33.8958,35.5875,XXX,0,0,0,0,0,BEIRUT,0,LB,0,LB,RMS,3,ATC,0,1,85255,USD,0,USD,0,USD,0,USD,0,USD,0,USD,0,USD,0,USD,0,USD,0,USD,XXX,XXX,0,0
11111,134,33.8958,35.6708,XXX,0,0,0,0,0,BEIRUT,0,LB,0,LB,RMS,3,ATC,0,1,797968,USD,0,USD,0,USD,0,USD,0,USD,0,USD,0,USD,0,USD,0,USD,0,USD,XXX,XXX,0,0
11111,135,33.9,35.5333,XXX,0,0,0,0,0,BEIRUT,0,LB,0,LB,RMS,5,ATC,0,1,257693,USD,0,USD,0,USD,0,USD,0,USD,0,USD,0,USD,0,USD,0,USD,0,USD,XXX,XXX,0,0
11111,136,33.9,35.6667,XXX,0,0,0,0,0,BEIRUT,0,LB,0,LB,RMS,1,ATC,0,1,137129,USD,0,USD,0,USD,0,USD,0,USD,0,USD,0,USD,0,USD,0,USD,0,USD,XXX,XXX,0,0
11111,137,33.9042,35.4958,XXX,0,0,0,0,0,BEIRUT,0,LB,0,LB,RMS,2,ATC,0,1,511934,USD,0,USD,0,USD,0,USD,0,USD,0,USD,0,USD,0,USD,0,USD,0,USD,XXX,XXX,0,0
11111,138,33.9042,35.5292,XXX,0,0,0,0,0,BEIRUT,0,LB,0,LB,RMS,5,ATC,0,1,354086,USD,0,USD,0,USD,0,USD,0,USD,0,USD,0,USD,0,USD,0,USD,0,USD,XXX,XXX,0,0
11111,139,33.9042,35.5792,XXX,0,0,0,0,0,BEIRUT,0,LB,0,LB,RMS,1,ATC,0,1,753599,USD,0,USD,0,USD,0,USD,0,USD,0,USD,0,USD,0,USD,0,USD,0,USD,XXX,XXX,0,0
11111,140,33.9042,35.5875,XXX,0,0,0,0,0,BEIRUT,0,LB,0,LB,RMS,3,ATC,0,1,212711,USD,0,USD,0,USD,0,USD,0,USD,0,USD,0,USD,0,USD,0,USD,0,USD,XXX,XXX,0,0
11111,141,33.9042,35.5958,XXX,0,0,0,0,0,BEIRUT,0,LB,0,LB,RMS,1,ATC,0,1,627061,USD,0,USD,0,USD,0,USD,0,USD,0,USD,0,USD,0,USD,0,USD,0,USD,XXX,XXX,0,0
11111,142,33.9083,35.6083,XXX,0,0,0,0,0,BEIRUT,0,LB,0,LB,RMS,6,ATC,0,1,990604,USD,0,USD,0,USD,0,USD,0,USD,0,USD,0,USD,0,USD,0,USD,0,USD,XXX,XXX,0,0
11111,143,33.9083,35.7083,XXX,0,0,0,0,0,BEIRUT,0,LB,0,LB,RMS,3,ATC,0,1,867583,USD,0,USD,0,USD,0,USD,0,USD,0,USD,0,USD,0,USD,0,USD,0,USD,XXX,XXX,0,0
11111,144,33.9083,35.7417,XXX,0,0,0,0,0,BEIRUT,0,LB,0,LB,RMS,5,ATC,0,1,697007,USD,0,USD,0,USD,0,USD,0,USD,0,USD,0,USD,0,USD,0,USD,0,USD,XXX,XXX,0,0
11111,145,33.9125,35.5792,XXX,0,0,0,0,0,BEIRUT,0,LB,0,LB,RMS,5,ATC,0,1,688094,USD,0,USD,0,USD,0,USD,0,USD,0,USD,0,USD,0,USD,0,USD,0,USD,XXX,XXX,0,0
11111,146,33.9125,35.5875,XXX,0,0,0,0,0,BEIRUT,0,LB,0,LB,RMS,2,ATC,0,1,203370,USD,0,USD,0,USD,0,USD,0,USD,0,USD,0,USD,0,USD,0,USD,0,USD,XXX,XXX,0,0
11111,147,33.9125,35.7125,XXX,0,0,0,0,0,BEIRUT,0,LB,0,LB,RMS,2,ATC,0,1,227706,USD,0,USD,0,USD,0,USD,0,USD,0,USD,0,USD,0,USD,0,USD,0,USD,XXX,XXX,0,0
11111,148,33.9167,35.5833,XXX,0,0,0,0,0,BEIRUT,0,LB,0,LB,RMS,5,ATC,0,1,24468,USD,0,USD,0,USD,0,USD,0,USD,0,USD,0,USD,0,USD,0,USD,0,USD,XXX,XXX,0,0
11111,149,33.9167,35.65,XXX,0,0,0,0,0,BEIRUT,0,LB,0,LB,RMS,1,ATC,0,1,313835,USD,0,USD,0,USD,0,USD,0,USD,0,USD,0,USD,0,USD,0,USD,0,USD,XXX,XXX,0,0
11111,150,33.9167,35.6833,XXX,0,0,0,0,0,BEIRUT,0,LB,0,LB,RMS,5,ATC,0,1,168671,USD,0,USD,0,USD,0,USD,0,USD,0,USD,0,USD,0,USD,0,USD,0,USD,XXX,XXX,0,0
11111,151,33.9167,35.7167,XXX,0,0,0,0,0,BEIRUT,0,LB,0,LB,RMS,5,ATC,0,1,645255,USD,0,USD,0,USD,0,USD,0,USD,0,USD,0,USD,0,USD,0,USD,0,USD,XXX,XXX,0,0
11111,152,33.9208,35.5958,XXX,0,0,0,0,0,BEIRUT,0,LB,0,LB,RMS,3,ATC,0,1,72305,USD,0,USD,0,USD,0,USD,0,USD,0,USD,0,USD,0,USD,0,USD,0,USD,XXX,XXX,0,0
11111,153,33.9208,35.6042,XXX,0,0,0,0,0,BEIRUT,0,LB,0,LB,RMS,2,ATC,0,1,793445,USD,0,USD,0,USD,0,USD,0,USD,0,USD,0,USD,0,USD,0,USD,0,USD,XXX,XXX,0,0
11111,154,33.9208,35.6125,XXX,0,0,0,0,0,BEIRUT,0,LB,0,LB,RMS,4,ATC,0,1,941713,USD,0,USD,0,USD,0,USD,0,USD,0,USD,0,USD,0,USD,0,USD,0,USD,XXX,XXX,0,0
11111,155,33.9208,35.6208,XXX,0,0,0,0,0,BEIRUT,0,LB,0,LB,RMS,5,ATC,0,1,307950,USD,0,USD,0,USD,0,USD,0,USD,0,USD,0,USD,0,USD,0,USD,0,USD,XXX,XXX,0,0
11111,156,33.9208,35.6292,XXX,0,0,0,0,0,BEIRUT,0,LB,0,LB,RMS,0,ATC,0,1,378134,USD,0,USD,0,USD,0,USD,0,USD,0,USD,0,USD,0,USD,0,USD,0,USD,XXX,XXX,0,0
11111,157,33.9208,35.6375,XXX,0,0,0,0,0,BEIRUT,0,LB,0,LB,RMS,1,ATC,0,1,220952,USD,0,USD,0,USD,0,USD,0,USD,0,USD,0,USD,0,USD,0,USD,0,USD,XXX,XXX,0,0
11111,158,33.9208,35.6458,XXX,0,0,0,0,0,BEIRUT,0,LB,0,LB,RMS,0,ATC,0,1,646751,USD,0,USD,0,USD,0,USD,0,USD,0,USD,0,USD,0,USD,0,USD,0,USD,XXX,XXX,0,0
11111,159,33.9208,35.6542,XXX,0,0,0,0,0,BEIRUT,0,LB,0,LB,RMS,0,ATC,0,1,596274,USD,0,USD,0,USD,0,USD,0,USD,0,USD,0,USD,0,USD,0,USD,0,USD,XXX,XXX,0,0
11111,160,33.9208,35.6792,XXX,0,0,0,0,0,BEIRUT,0,LB,0,LB,RMS,2,ATC,0,1,396323,USD,0,USD,0,USD,0,USD,0,USD,0,USD,0,USD,0,USD,0,USD,0,USD,XXX,XXX,0,0
11111,161,33.9208,35.6875,XXX,0,0,0,0,0,BEIRUT,0,LB,0,LB,RMS,6,ATC,0,1,537637,USD,0,USD,0,USD,0,USD,0,USD,0,USD,0,USD,0,USD,0,USD,0,USD,XXX,XXX,0,0
11111,162,33.925,35.5917,XXX,0,0,0,0,0,BEIRUT,0,LB,0,LB,RMS,1,ATC,0,1,970605,USD,0,USD,0,USD,0,USD,0,USD,0,USD,0,USD,0,USD,0,USD,0,USD,XXX,XXX,0,0
11111,163,33.925,35.7417,XXX,0,0,0,0,0,BEIRUT,0,LB,0,LB,RMS,3,ATC,0,1,630505,USD,0,USD,0,USD,0,USD,0,USD,0,USD,0,USD,0,USD,0,USD,0,USD,XXX,XXX,0,0
11111,164,33.9292,35.5958,XXX,0,0,0,0,0,BEIRUT,0,LB,0,LB,RMS,1,ATC,0,1,297943,USD,0,USD,0,USD,0,USD,0,USD,0,USD,0,USD,0,USD,0,USD,0,USD,XXX,XXX,0,0
11111,165,33.9292,35.6042,XXX,0,0,0,0,0,BEIRUT,0,LB,0,LB,RMS,2,ATC,0,1,828516,USD,0,USD,0,USD,0,USD,0,USD,0,USD,0,USD,0,USD,0,USD,0,USD,XXX,XXX,0,0
11111,166,33.9292,35.6125,XXX,0,0,0,0,0,BEIRUT,0,LB,0,LB,RMS,3,ATC,0,1,61520,USD,0,USD,0,USD,0,USD,0,USD,0,USD,0,USD,0,USD,0,USD,0,USD,XXX,XXX,0,0
11111,167,33.9292,35.6208,XXX,0,0,0,0,0,BEIRUT,0,LB,0,LB,RMS,0,ATC,0,1,816258,USD,0,USD,0,USD,0,USD,0,USD,0,USD,0,USD,0,USD,0,USD,0,USD,XXX,XXX,0,0
11111,168,33.9292,35.6292,XXX,0,0,0,0,0,BEIRUT,0,LB,0,LB,RMS,2,ATC,0,1,99262,USD,0,USD,0,USD,0,USD,0,USD,0,USD,0,USD,0,USD,0,USD,0,USD,XXX,XXX,0,0
11111,169,33.9292,35.6375,XXX,0,0,0,0,0,BEIRUT,0,LB,0,LB,RMS,3,ATC,0,1,182328,USD,0,USD,0,USD,0,USD,0,USD,0,USD,0,USD,0,USD,0,USD,0,USD,XXX,XXX,0,0
11111,170,33.9292,35.6458,XXX,0,0,0,0,0,BEIRUT,0,LB,0,LB,RMS,4,ATC,0,1,59425,USD,0,USD,0,USD,0,USD,0,USD,0,USD,0,USD,0,USD,0,USD,0,USD,XXX,XXX,0,0
11111,171,33.9292,35.6542,XXX,0,0,0,0,0,BEIRUT,0,LB,0,LB,RMS,5,ATC,0,1,810672,USD,0,USD,0,USD,0,USD,0,USD,0,USD,0,USD,0,USD,0,USD,0,USD,XXX,XXX,0,0
11111,172,33.9292,35.6708,XXX,0,0,0,0,0,BEIRUT,0,LB,0,LB,RMS,4,ATC,0,1,324337,USD,0,USD,0,USD,0,USD,0,USD,0,USD,0,USD,0,USD,0,USD,0,USD,XXX,XXX,0,0
11111,173,33.9375,35.5958,XXX,0,0,0,0,0,BEIRUT,0,LB,0,LB,RMS,4,ATC,0,1,719008,USD,0,USD,0,USD,0,USD,0,USD,0,USD,0,USD,0,USD,0,USD,0,USD,XXX,XXX,0,0
11111,174,33.9375,35.6042,XXX,0,0,0,0,0,BEIRUT,0,LB,0,LB,RMS,6,ATC,0,1,228001,USD,0,USD,0,USD,0,USD,0,USD,0,USD,0,USD,0,USD,0,USD,0,USD,XXX,XXX,0,0
11111,175,33.9375,35.6125,XXX,0,0,0,0,0,BEIRUT,0,LB,0,LB,RMS,0,ATC,0,1,255409,USD,0,USD,0,USD,0,USD,0,USD,0,USD,0,USD,0,USD,0,USD,0,USD,XXX,XXX,0,0
11111,176,33.9375,35.6208,XXX,0,0,0,0,0,BEIRUT,0,LB,0,LB,RMS,1,ATC,0,1,984261,USD,0,USD,0,USD,0,USD,0,USD,0,USD,0,USD,0,USD,0,USD,0,USD,XXX,XXX,0,0
11111,177,33.9375,35.6375,XXX,0,0,0,0,0,BEIRUT,0,LB,0,LB,RMS,4,ATC,0,1,923798,USD,0,USD,0,USD,0,USD,0,USD,0,USD,0,USD,0,USD,0,USD,0,USD,XXX,XXX,0,0
11111,178,33.9417,35.625,XXX,0,0,0,0,0,BEIRUT,0,LB,0,LB,RMS,6,ATC,0,1,789021,USD,0,USD,0,USD,0,USD,0,USD,0,USD,0,USD,0,USD,0,USD,0,USD,XXX,XXX,0,0
11111,179,33.9458,35.5958,XXX,0,0,0,0,0,BEIRUT,0,LB,0,LB,RMS,4,ATC,0,1,455500,USD,0,USD,0,USD,0,USD,0,USD,0,USD,0,USD,0,USD,0,USD,0,USD,XXX,XXX,0,0
11111,180,33.95,35.6167,XXX,0,0,0,0,0,BEIRUT,0,LB,0,LB,RMS,0,ATC,0,1,466416,USD,0,USD,0,USD,0,USD,0,USD,0,USD,0,USD,0,USD,0,USD,0,USD,XXX,XXX,0,0
11111,181,33.95,35.6833,XXX,0,0,0,0,0,BEIRUT,0,LB,0,LB,RMS,3,ATC,0,1,426237,USD,0,USD,0,USD,0,USD,0,USD,0,USD,0,USD,0,USD,0,USD,0,USD,XXX,XXX,0,0
11111,182,33.9542,35.6125,XXX,0,0,0,0,0,BEIRUT,0,LB,0,LB,RMS,1,ATC,0,1,425159,USD,0,USD,0,USD,0,USD,0,USD,0,USD,0,USD,0,USD,0,USD,0,USD,XXX,XXX,0,0
11111,183,33.9542,35.6208,XXX,0,0,0,0,0,BEIRUT,0,LB,0,LB,RMS,3,ATC,0,1,102649,USD,0,USD,0,USD,0,USD,0,USD,0,USD,0,USD,0,USD,0,USD,0,USD,XXX,XXX,0,0
11111,184,33.9542,35.6458,XXX,0,0,0,0,0,BEIRUT,0,LB,0,LB,RMS,3,ATC,0,1,286706,USD,0,USD,0,USD,0,USD,0,USD,0,USD,0,USD,0,USD,0,USD,0,USD,XXX,XXX,0,0
11111,185,33.9542,35.6792,XXX,0,0,0,0,0,BEIRUT,0,LB,0,LB,RMS,5,ATC,0,1,52536,USD,0,USD,0,USD,0,USD,0,USD,0,USD,0,USD,0,USD,0,USD,0,USD,XXX,XXX,0,0
11111,186,33.9583,35.6583,XXX,0,0,0,0,0,BEIRUT,0,LB,0,LB,RMS,4,ATC,0,1,514531,USD,0,USD,0,USD,0,USD,0,USD,0,USD,0,USD,0,USD,0,USD,0,USD,XXX,XXX,0,0
11111,187,33.9583,35.675,XXX,0,0,0,0,0,BEIRUT,0,LB,0,LB,RMS,5,ATC,0,1,807722,USD,0,USD,0,USD,0,USD,0,USD,0,USD,0,USD,0,USD,0,USD,0,USD,XXX,XXX,0,0
11111,188,33.9625,35.6042,XXX,0,0,0,0,0,BEIRUT,0,LB,0,LB,RMS,3,ATC,0,1,544716,USD,0,USD,0,USD,0,USD,0,USD,0,USD,0,USD,0,USD,0,USD,0,USD,XXX,XXX,0,0
11111,189,33.9625,35.6125,XXX,0,0,0,0,0,BEIRUT,0,LB,0,LB,RMS,1,ATC,0,1,319755,USD,0,USD,0,USD,0,USD,0,USD,0,USD,0,USD,0,USD,0,USD,0,USD,XXX,XXX,0,0
11111,190,33.9625,35.6208,XXX,0,0,0,0,0,BEIRUT,0,LB,0,LB,RMS,1,ATC,0,1,466626,USD,0,USD,0,USD,0,USD,0,USD,0,USD,0,USD,0,USD,0,USD,0,USD,XXX,XXX,0,0
11111,191,33.9625,35.6792,XXX,0,0,0,0,0,BEIRUT,0,LB,0,LB,RMS,4,ATC,0,1,382616,USD,0,USD,0,USD,0,USD,0,USD,0,USD,0,USD,0,USD,0,USD,0,USD,XXX,XXX,0,0
11111,192,33.9625,35.6875,XXX,0,0,0,0,0,BEIRUT,0,LB,0,LB,RMS,6,ATC,0,1,612592,USD,0,USD,0,USD,0,USD,0,USD,0,USD,0,USD,0,USD,0,USD,0,USD,XXX,XXX,0,0
11111,193,33.9708,35.6125,XXX,0,0,0,0,0,BEIRUT,0,LB,0,LB,RMS,5,ATC,0,1,226175,USD,0,USD,0,USD,0,USD,0,USD,0,USD,0,USD,0,USD,0,USD,0,USD,XXX,XXX,0,0
11111,194,33.9708,35.6208,XXX,0,0,0,0,0,BEIRUT,0,LB,0,LB,RMS,1,ATC,0,1,742278,USD,0,USD,0,USD,0,USD,0,USD,0,USD,0,USD,0,USD,0,USD,0,USD,XXX,XXX,0,0
11111,195,33.975,35.6417,XXX,0,0,0,0,0,BEIRUT,0,LB,0,LB,RMS,5,ATC,0,1,328794,USD,0,USD,0,USD,0,USD,0,USD,0,USD,0,USD,0,USD,0,USD,0,USD,XXX,XXX,0,0
11111,196,33.975,35.6583,XXX,0,0,0,0,0,BEIRUT,0,LB,0,LB,RMS,0,ATC,0,1,447683,USD,0,USD,0,USD,0,USD,0,USD,0,USD,0,USD,0,USD,0,USD,0,USD,XXX,XXX,0,0
11111,197,33.975,35.7083,XXX,0,0,0,0,0,BEIRUT,0,LB,0,LB,RMS,5,ATC,0,1,417975,USD,0,USD,0,USD,0,USD,0,USD,0,USD,0,USD,0,USD,0,USD,0,USD,XXX,XXX,0,0
11111,198,33.9792,35.6208,XXX,0,0,0,0,0,BEIRUT,0,LB,0,LB,RMS,1,ATC,0,1,623812,USD,0,USD,0,USD,0,USD,0,USD,0,USD,0,USD,0,USD,0,USD,0,USD,XXX,XXX,0,0
11111,199,33.9792,35.6292,XXX,0,0,0,0,0,BEIRUT,0,LB,0,LB,RMS,4,ATC,0,1,1363,USD,0,USD,0,USD,0,USD,0,USD,0,USD,0,USD,0,USD,0,USD,0,USD,XXX,XXX,0,0
11111,200,33.9833,35.6167,XXX,0,0,0,0,0,BEIRUT,0,LB,0,LB,RMS,4,ATC,0,1,13029,USD,0,USD,0,USD,0,USD,0,USD,0,USD,0,USD,0,USD,0,USD,0,USD,XXX,XXX,0,0
11111,201,33.9833,35.6833,XXX,0,0,0,0,0,BEIRUT,0,LB,0,LB,RMS,0,ATC,0,1,65678,USD,0,USD,0,USD,0,USD,0,USD,0,USD,0,USD,0,USD,0,USD,0,USD,XXX,XXX,0,0
11111,202,33.9833,35.7167,XXX,0,0,0,0,0,BEIRUT,0,LB,0,LB,RMS,1,ATC,0,1,827222,USD,0,USD,0,USD,0,USD,0,USD,0,USD,0,USD,0,USD,0,USD,0,USD,XXX,XXX,0,0
11111,203,33.9875,35.6708,XXX,0,0,0,0,0,BEIRUT,0,LB,0,LB,RMS,5,ATC,0,1,73909,USD,0,USD,0,USD,0,USD,0,USD,0,USD,0,USD,0,USD,0,USD,0,USD,XXX,XXX,0,0
11111,204,33.9875,35.6792,XXX,0,0,0,0,0,BEIRUT,0,LB,0,LB,RMS,6,ATC,0,1,467742,USD,0,USD,0,USD,0,USD,0,USD,0,USD,0,USD,0,USD,0,USD,0,USD,XXX,XXX,0,0
11111,205,33.9917,35.6417,XXX,0,0,0,0,0,BEIRUT,0,LB,0,LB,RMS,2,ATC,0,1,325365,USD,0,USD,0,USD,0,USD,0,USD,0,USD,0,USD,0,USD,0,USD,0,USD,XXX,XXX,0,0
11111,206,33.9917,35.6583,XXX,0,0,0,0,0,BEIRUT,0,LB,0,LB,RMS,1,ATC,0,1,863419,USD,0,USD,0,USD,0,USD,0,USD,0,USD,0,USD,0,USD,0,USD,0,USD,XXX,XXX,0,0
11111,207,33.9917,35.7083,XXX,0,0,0,0,0,BEIRUT,0,LB,0,LB,RMS,1,ATC,0,1,950315,USD,0,USD,0,USD,0,USD,0,USD,0,USD,0,USD,0,USD,0,USD,0,USD,XXX,XXX,0,0
11111,208,34.0083,35.6583,XXX,0,0,0,0,0,BEIRUT,0,LB,0,LB,RMS,4,ATC,0,1,532159,USD,0,USD,0,USD,0,USD,0,USD,0,USD,0,USD,0,USD,0,USD,0,USD,XXX,XXX,0,0
11111,209,34.0125,35.6542,XXX,0,0,0,0,0,BEIRUT,0,LB,0,LB,RMS,2,ATC,0,1,610949,USD,0,USD,0,USD,0,USD,0,USD,0,USD,0,USD,0,USD,0,USD,0,USD,XXX,XXX,0,0
11111,210,34.0167,35.6833,XXX,0,0,0,0,0,BEIRUT,0,LB,0,LB,RMS,4,ATC,0,1,394291,USD,0,USD,0,USD,0,USD,0,USD,0,USD,0,USD,0,USD,0,USD,0,USD,XXX,XXX,0,0
11111,211,34.025,35.6417,XXX,0,0,0,0,0,BEIRUT,0,LB,0,LB,RMS,0,ATC,0,1,490285,USD,0,USD,0,USD,0,USD,0,USD,0,USD,0,USD,0,USD,0,USD,0,USD,XXX,XXX,0,0
11111,212,34.025,35.6583,XXX,0,0,0,0,0,BEIRUT,0,LB,0,LB,RMS,4,ATC,0,1,769368,USD,0,USD,0,USD,0,USD,0,USD,0,USD,0,USD,0,USD,0,USD,0,USD,XXX,XXX,0,0
11111,213,34.0417,35.6417,XXX,0,0,0,0,0,BEIRUT,0,LB,0,LB,RMS,5,ATC,0,1,224603,USD,0,USD,0,USD,0,USD,0,USD,0,USD,0,USD,0,USD,0,USD,0,USD,XXX,XXX,0,0
11111,214,34.05,35.6833,XXX,0,0,0,0,0,BEIRUT,0,LB,0,LB,RMS,1,ATC,0,1,807644,USD,0,USD,0,USD,0,USD,0,USD,0,USD,0,USD,0,USD,0,USD,0,USD,XXX,XXX,0,0
11111,215,34.05,35.7167,XXX,0,0,0,0,0,BEIRUT,0,LB,0,LB,RMS,2,ATC,0,1,133417,USD,0,USD,0,USD,0,USD,0,USD,0,USD,0,USD,0,USD,0,USD,0,USD,XXX,XXX,0,0
11111,216,34.0583,35.6417,XXX,0,0,0,0,0,BEIRUT,0,LB,0,LB,RMS,4,ATC,0,1,392630,USD,0,USD,0,USD,0,USD,0,USD,0,USD,0,USD,0,USD,0,USD,0,USD,XXX,XXX,0,0
11111,217,34.0667,35.7,XXX,0,0,0,0,0,BEIRUT,0,LB,0,LB,RMS,0,ATC,0,1,735844,USD,0,USD,0,USD,0,USD,0,USD,0,USD,0,USD,0,USD,0,USD,0,USD,XXX,XXX,0,0
11111,218,34.0708,35.6458,XXX,0,0,0,0,0,BEIRUT,0,LB,0,LB,RMS,1,ATC,0,1,86274,USD,0,USD,0,USD,0,USD,0,USD,0,USD,0,USD,0,USD,0,USD,0,USD,XXX,XXX,0,0
11111,219,34.0917,35.6583,XXX,0,0,0,0,0,BEIRUT,0,LB,0,LB,RMS,1,ATC,0,1,653437,USD,0,USD,0,USD,0,USD,0,USD,0,USD,0,USD,0,USD,0,USD,0,USD,XXX,XXX,0,0
11111,220,34.1083,35.6583,XXX,0,0,0,0,0,BEIRUT,0,LB,0,LB,RMS,2,ATC,0,1,176621,USD,0,USD,0,USD,0,USD,0,USD,0,USD,0,USD,0,USD,0,USD,0,USD,XXX,XXX,0,0
11111,221,34.1208,35.6458,XXX,0,0,0,0,0,BEIRUT,0,LB,0,LB,RMS,2,ATC,0,1,723313,USD,0,USD,0,USD,0,USD,0,USD,0,USD,0,USD,0,USD,0,USD,0,USD,XXX,XXX,0,0
11111,222,34.1208,35.6542,XXX,0,0,0,0,0,BEIRUT,0,LB,0,LB,RMS,2,ATC,0,1,137793,USD,0,USD,0,USD,0,USD,0,USD,0,USD,0,USD,0,USD,0,USD,0,USD,XXX,XXX,0,0
11111,223,34.1208,35.6625,XXX,0,0,0,0,0,BEIRUT,0,LB,0,LB,RMS,4,ATC,0,1,98123,USD,0,USD,0,USD,0,USD,0,USD,0,USD,0,USD,0,USD,0,USD,0,USD,XXX,XXX,0,0
11111,224,34.1292,35.6458,XXX,0,0,0,0,0,BEIRUT,0,LB,0,LB,RMS,5,ATC,0,1,42781,USD,0,USD,0,USD,0,USD,0,USD,0,USD,0,USD,0,USD,0,USD,0,USD,XXX,XXX,0,0
11111,225,34.1292,35.6542,XXX,0,0,0,0,0,BEIRUT,0,LB,0,LB,RMS,5,ATC,0,1,172583,USD,0,USD,0,USD,0,USD,0,USD,0,USD,0,USD,0,USD,0,USD,0,USD,XXX,XXX,0,0
11111,226,34.1375,35.6458,XXX,0,0,0,0,0,BEIRUT,0,LB,0,LB,RMS,5,ATC,0,1,718073,USD,0,USD,0,USD,0,USD,0,USD,0,USD,0,USD,0,USD,0,USD,0,USD,XXX,XXX,0,0
11111,227,34.1417,35.6417,XXX,0,0,0,0,0,BEIRUT,0,LB,0,LB,RMS,5,ATC,0,1,760851,USD,0,USD,0,USD,0,USD,0,USD,0,USD,0,USD,0,USD,0,USD,0,USD,XXX,XXX,0,0
11111,228,34.1417,35.6583,XXX,0,0,0,0,0,BEIRUT,0,LB,0,LB,RMS,1,ATC,0,1,896851,USD,0,USD,0,USD,0,USD,0,USD,0,USD,0,USD,0,USD,0,USD,0,USD,XXX,XXX,0,0
11111,229,34.1458,35.6458,XXX,0,0,0,0,0,BEIRUT,0,LB,0,LB,RMS,2,ATC,0,1,418105,USD,0,USD,0,USD,0,USD,0,USD,0,USD,0,USD,0,USD,0,USD,0,USD,XXX,XXX,0,0
11111,230,34.1583,35.6417,XXX,0,0,0,0,0,BEIRUT,0,LB,0,LB,RMS,5,ATC,0,1,764171,USD,0,USD,0,USD,0,USD,0,USD,0,USD,0,USD,0,USD,0,USD,0,USD,XXX,XXX,0,0
